NORAD_CAT_ID,OBJECT_NAME,OBJECT_TYPE,EPOCH,MEAN_MOTION,ECCENTRICITY,INCLINATION,RA_OF_ASC_NODE,ARG_OF_PERICENTER,MEAN_ANOMALY,BSTAR,MEAN_MOTION_DOT,MEAN_MOTION_DDOT,TLE_LINE0,TLE_LINE1,TLE_LINE2,SEMIMAJOR_AXIS,PERIOD,APOGEE,PERIGEE,DECAYED
56776.0,STARLINK-6274,PAYLOAD,2024-04-05 00:05:23,14.98330348,0.0003123,69.9982,298.8795,269.7429,90.3372,8.1073e-05,8.74e-06,0.0,0 STARLINK-6274,1 56776U 23078K   24096.00374802  .00000874  00000-0  81073-4 0  9998,2 56776  69.9982 298.8795 0003123 269.7429  90.3372 14.98330348 48023,6950.192,96.107,574.227,569.886,0.0
56776.0,STARLINK-6274,PAYLOAD,2024-04-05 14:30:36,14.9833784,0.0003264,69.9976,297.3636,272.7332,87.3454,0.00010976,1.217e-05,0.0,0 STARLINK-6274,1 56776U 23078K   24096.60458517  .00001217  00000-0  10976-3 0  9995,2 56776  69.9976 297.3636 0003264 272.7332  87.3454 14.98337840 47858,6950.169,96.106,574.302,569.765,0.0
56776.0,STARLINK-6274,PAYLOAD,2024-04-05 20:55:08,14.9834056,0.0003194,69.9978,296.6906,271.4412,88.6381,0.00013423,1.509e-05,0.0,0 STARLINK-6274,1 56776U 23078K   24096.87162108  .00001509  00000-0  13423-3 0  9996,2 56776  69.9978 296.6906 0003194 271.4412  88.6381 14.98340560 47899,6950.16,96.106,574.245,569.805,0.0
56776.0,STARLINK-6274,PAYLOAD,2024-04-06 00:07:24,14.983415,0.0003186,69.9978,296.3539,271.5129,88.5665,0.00013855,1.561e-05,0.0,0 STARLINK-6274,1 56776U 23078K   24097.00513934  .00001561  00000-0  13855-3 0  9996,2 56776  69.9978 296.3539 0003186 271.5129  88.5665 14.98341500 48176,6950.157,96.106,574.237,569.808,0.0
56776.0,STARLINK-6274,PAYLOAD,2024-04-06 12:56:28,14.98341979,0.0003103,69.9979,295.0071,270.31,89.7704,4.4573e-05,4.39e-06,0.0,0 STARLINK-6274,1 56776U 23078K   24097.53921751  .00000439  00000-0  44573-4 0  9999,2 56776  69.9979 295.0071 0003103 270.3100  89.7704 14.98341979 47995,6950.156,96.106,574.177,569.864,0.0
56776.0,STARLINK-6274,PAYLOAD,2024-04-06 22:33:16,14.98342176,0.0003115,69.9979,293.997,270.0863,89.9939,3.8314e-05,3.64e-06,0.0,0 STARLINK-6274,1 56776U 23078K   24097.93977385  .00000364  00000-0  38314-4 0  9990,2 56776  69.9979 293.9970 0003115 270.0863  89.9939 14.98342176 48056,6950.155,96.106,574.185,569.855,0.0
56776.0,STARLINK-6274,PAYLOAD,2024-04-07 20:59:09,14.98336085,0.0003019,69.998,291.6407,270.0633,90.018,-0.00010508,-1.347e-05,0.0,0 STARLINK-6274,1 56776U 23078K   24098.87441545 -.00001347  00000-0 -10508-3 0  9996,2 56776  69.9980 291.6407 0003019 270.0633  90.0180 14.98336085 48453,6950.174,96.107,574.137,569.941,0.0
56776.0,STARLINK-6274,PAYLOAD,2024-04-07 22:35:17,14.98335863,0.0003021,69.9979,291.4723,270.1075,89.9738,-0.00010575,-1.355e-05,0.0,0 STARLINK-6274,1 56776U 23078K   24098.94117527 -.00001355  00000-0 -10575-3 0  9997,2 56776  69.9979 291.4723 0003021 270.1075  89.9738 14.98335863 48206,6950.175,96.107,574.139,569.94,0.0
56776.0,STARLINK-6274,PAYLOAD,2024-04-08 13:00:29,14.98335228,0.0003049,69.9974,289.9569,270.2855,89.7955,-8.4404e-05,-1.1e-05,0.0,0 STARLINK-6274,1 56776U 23078K   24099.54201237 -.00001100  00000-0 -84404-4 0  9997,2 56776  69.9974 289.9569 0003049 270.2855  89.7955 14.98335228 48291,6950.177,96.107,574.161,569.923,0.0
56776.0,STARLINK-6274,PAYLOAD,2024-04-08 22:37:18,14.98334878,0.0003063,69.9974,288.9469,270.7528,89.328,-6.8435e-05,-9.1e-06,0.0,0 STARLINK-6274,1 56776U 23078K   24099.94257088 -.00000910  00000-0 -68435-4 0  9990,2 56776  69.9974 288.9469 0003063 270.7528  89.3280 14.98334878 48351,6950.178,96.107,574.172,569.914,0.0
56776.0,STARLINK-6274,PAYLOAD,2024-04-09 22:39:17,14.98347181,0.0003134,69.9977,286.4219,271.0196,89.0604,0.0001696,1.932e-05,0.0,0 STARLINK-6274,1 56776U 23078K   24100.94394923  .00001932  00000-0  16960-3 0  9991,2 56776  69.9977 286.4219 0003134 271.0196  89.0604 14.98347181 48509,6950.14,96.106,574.183,569.827,0.0
56776.0,STARLINK-6274,PAYLOAD,2024-04-10 05:03:51,14.98320111,0.0003323,69.998,285.7485,269.9694,90.1085,-0.00012729,-1.611e-05,0.0,0 STARLINK-6274,1 56776U 23078K   24101.21101004 -.00001611  00000-0 -12729-3 0  9993,2 56776  69.9980 285.7485 0003323 269.9694  90.1085 14.98320111 48802,6950.223,96.108,574.398,569.779,0.0
56776.0,STARLINK-6274,PAYLOAD,2024-04-10 11:28:23,14.98318872,0.0002967,69.9987,285.0753,271.1572,88.9248,-0.00014978,-1.879e-05,0.0,0 STARLINK-6274,1 56776U 23078K   24101.47805403 -.00001879  00000-0 -14978-3 0  9999,2 56776  69.9987 285.0753 0002967 271.1572  88.9248 14.98318872 48585,6950.227,96.108,574.154,570.03,0.0
56776.0,STARLINK-6274,PAYLOAD,2024-04-10 22:41:20,14.98322233,0.0002723,70.0004,283.8953,278.2044,81.8806,-9.2382e-05,-1.195e-05,0.0,0 STARLINK-6274,1 56776U 23078K   24101.94537339 -.00001195  00000-0 -92382-4 0  9998,2 56776  70.0004 283.8953 0002723 278.2044  81.8806 14.98322233 48654,6950.217,96.107,573.974,570.189,0.0
56776.0,STARLINK-6274,PAYLOAD,2024-04-11 13:06:32,14.98316327,0.0003293,70.0036,282.3814,268.2421,91.8361,5.839e-05,6.04e-06,0.0,0 STARLINK-6274,1 56776U 23078K   24102.54620730  .00000604  00000-0  58390-4 0  9996,2 56776  70.0036 282.3814 0003293 268.2421  91.8361 14.98316327 49004,6950.235,96.108,574.389,569.811,0.0
56776.0,STARLINK-6274,PAYLOAD,2024-04-11 14:42:42,14.98293691,0.0003524,69.9989,282.2146,279.0338,81.0422,-0.00013395,-1.69e-05,0.0,0 STARLINK-6274,1 56776U 23078K   24102.61298766 -.00001690  00000-0 -13395-3 0  9997,2 56776  69.9989 282.2146 0003524 279.0338  81.0422 14.98293691 48757,6950.305,96.109,574.619,569.721,0.0
56776.0,STARLINK-6274,PAYLOAD,2024-04-11 19:31:06,14.9829302,0.0002944,69.9994,281.7094,267.7565,92.3257,-0.00014674,-1.842e-05,0.0,0 STARLINK-6274,1 56776U 23078K   24102.81327240 -.00001842  00000-0 -14674-3 0  9999,2 56776  69.9994 281.7094 0002944 267.7565  92.3257 14.98293020 49040,6950.307,96.109,574.218,570.126,0.0
56776.0,STARLINK-6274,PAYLOAD,2024-04-11 21:07:14,14.98292922,0.0002972,69.9993,281.5412,267.5753,92.5066,-0.00014498,-1.821e-05,0.0,0 STARLINK-6274,1 56776U 23078K   24102.88003376 -.00001821  00000-0 -14498-3 0  9998,2 56776  69.9993 281.5412 0002972 267.5753  92.5066 14.98292922 48790,6950.308,96.109,574.238,570.107,0.0
56776.0,STARLINK-6274,PAYLOAD,2024-04-12 13:08:35,14.98307725,0.0003335,69.9986,279.8585,271.3696,88.7081,-1.9501e-05,-3.26e-06,0.0,0 STARLINK-6274,1 56776U 23078K   24103.54763228 -.00000326  00000-0 -19501-4 0  9991,2 56776  69.9986 279.8585 0003335 271.3696  88.7081 14.98307725 49159,6950.262,96.108,574.445,569.809,0.0
56776.0,STARLINK-6274,PAYLOAD,2024-04-12 14:44:43,14.98308382,0.0003388,69.9986,279.6902,272.5875,87.4897,-1.3661e-05,-2.56e-06,0.0,0 STARLINK-6274,1 56776U 23078K   24103.61439269 -.00000256  00000-0 -13661-4 0  9997,2 56776  69.9986 279.6902 0003388 272.5875  87.4897 14.98308382 48903,6950.26,96.108,574.479,569.77,0.0
56776.0,STARLINK-6274,PAYLOAD,2024-04-13 11:34:30,14.98300836,0.0003375,69.9981,277.499,270.4858,89.5914,-0.00014093,-1.773e-05,0.0,0 STARLINK-6274,1 56776U 23078K   24104.48229479 -.00001773  00000-0 -14093-3 0  9997,2 56776  69.9981 277.4990 0003375 270.4858  89.5914 14.98300836 49297,6950.283,96.109,574.494,569.802,0.0
56776.0,STARLINK-6274,PAYLOAD,2024-04-13 14:46:46,14.98307074,0.0002927,70.0011,277.1636,269.5997,90.4827,-8.1481e-05,-1.064e-05,0.0,0 STARLINK-6274,1 56776U 23078K   24104.61581234 -.00001064  00000-0 -81481-4 0  9991,2 56776  70.0011 277.1636 0002927 269.5997  90.4827 14.98307074 49052,6950.264,96.108,574.163,570.094,0.0
56776.0,STARLINK-6274,PAYLOAD,2024-04-13 19:35:09,14.98311164,0.0002665,70.0001,276.6601,265.7768,94.3086,0.00029938,3.479e-05,0.0,0 STARLINK-6274,1 56776U 23078K   24104.81608329  .00003479  00000-0  29938-3 0  9996,2 56776  70.0001 276.6601 0002665 265.7768  94.3086 14.98311164 49347,6950.251,96.108,573.968,570.264,0.0
56776.0,STARLINK-6274,PAYLOAD,2024-04-13 21:11:17,14.98313431,0.0002766,69.9999,276.4919,268.064,92.0203,0.00031638,3.682e-05,0.0,0 STARLINK-6274,1 56776U 23078K   24104.88284221  .00003682  00000-0  31638-3 0  9990,2 56776  69.9999 276.4919 0002766 268.0640  92.0203 14.98313431 49094,6950.244,96.108,574.032,570.187,0.0
56776.0,STARLINK-6274,PAYLOAD,2024-04-14 11:36:29,14.98330194,0.0003132,69.9992,274.9746,277.4513,82.629,0.00030957,3.603e-05,0.0,0 STARLINK-6274,1 56776U 23078K   24105.48367167  .00003603  00000-0  30957-3 0  9994,2 56776  69.9992 274.9746 0003132 277.4513  82.6290 14.98330194 49444,6950.192,96.107,574.234,569.88,0.0
56776.0,STARLINK-6274,PAYLOAD,2024-04-14 19:37:08,14.98348961,0.0002919,69.9993,274.1341,269.9131,90.1694,0.00021688,2.497e-05,0.0,0 STARLINK-6274,1 56776U 23078K   24105.81746217  .00002497  00000-0  21688-3 0  9999,2 56776  69.9993 274.1341 0002919 269.9131  90.1694 14.98348961 49490,6950.134,96.106,574.028,569.971,0.0
56776.0,STARLINK-6274,PAYLOAD,2024-04-14 21:13:16,14.9834622,0.0002962,69.9995,273.9663,270.4293,89.6527,0.00028628,3.326e-05,0.0,0 STARLINK-6274,1 56776U 23078K   24105.88422191  .00003326  00000-0  28628-3 0  9991,2 56776  69.9995 273.9663 0002962 270.4293  89.6527 14.98346220 49247,6950.143,96.106,574.066,569.949,0.0
56776.0,STARLINK-6274,PAYLOAD,2024-04-15 13:14:36,14.9834842,0.0002853,69.9997,272.2823,269.1442,90.9391,0.00025506,2.953e-05,0.0,0 STARLINK-6274,1 56776U 23078K   24106.55181554  .00002953  00000-0  25506-3 0  9998,2 56776  69.9997 272.2823 0002853 269.1442  90.9391 14.98348420 49348,6950.136,96.106,573.984,570.018,0.0
56776.0,STARLINK-6274,PAYLOAD,2024-04-15 21:15:16,14.98359106,0.0002816,69.9999,271.4412,271.0994,88.9842,0.00020009,2.297e-05,0.0,0 STARLINK-6274,1 56776U 23078K   24106.88560494  .00002297  00000-0  20009-3 0  9992,2 56776  69.9999 271.4412 0002816 271.0994  88.9842 14.98359106 49394,6950.103,96.105,573.925,570.011,0.0
56776.0,STARLINK-6274,PAYLOAD,2024-04-16 13:16:37,14.98349962,0.0002257,70.0005,269.7586,264.3308,95.7594,-0.000108,-1.382e-05,0.0,0 STARLINK-6274,1 56776U 23078K   24107.55320970 -.00001382  00000-0 -10800-3 0  9994,2 56776  70.0005 269.7586 0002257 264.3308  95.7594 14.98349962 49759,6950.131,96.106,573.565,570.428,0.0
